SatCatId,ObjectName,LaunchYear,OrbitalPeriod,LaunchMass,StatusCode,Status,UcsData,OrbitClass,LaunchSiteCountry,Owner,UseType,Purpose,LaunchVehicleClass,TLE1,TLE2
25406,COSMOS 2360,1998,101.95,-1.0,UNK,Inactive,0,LEO,Kazakhstan,Russia/USSR,Unknown,Unknown,Unknown,1 25406U 98045A   22219.51749644 -.00000282  00000+0 -12614-3 0  9999,2 25406  70.8346  18.4313 0008076 276.7083  83.3118 14.12510147238981
836,OPS 3662 (VELA 3),1964,6020.03,-1.0,UNK,Inactive,0,HEO,USA,USA,Unknown,Unknown,Unknown,1 00836U 64040A   22220.63749945 -.00000037  00000+0  00000+0 0  9995,2 00836  38.0401 153.6524 7056800 315.2727   0.8969  0.23920076  7620
837,OPS 3674 (VELA 4),1964,6002.38,-1.0,UNK,Inactive,0,HEO,USA,USA,Unknown,Unknown,Unknown,1 00837U 64040B   22205.42705275  .00000022  00000+0  00000+0 0  9997,2 00837  45.8621 148.5478 3210766 300.2370   0.0784  0.23990470 51305
25413,ORBCOMM FM17,1998,100.6,-1.0,-,Inactive,0,LEO,Eastern Range Airspace,ORBCOMM,Unknown,Unknown,Unknown,1 25413U 98046A   22219.15893934  .00000276  00000+0  15548-3 0  9990,2 25413  44.9954 132.1881 0002794   8.1205 351.9686 14.31391596253284
25417,ORBCOMM FM16,1998,100.43,-1.0,-,Inactive,0,LEO,Eastern Range Airspace,ORBCOMM,Unknown,Unknown,Unknown,1 25417U 98046E   22219.51479843  .00000340  00000+0  17127-3 0  9990,2 25417  44.9960  69.6289 0003884  95.1458 264.9832 14.33811504254104
9047,COMSTAR 2,1976,1440.24,-1.0,UNK,Inactive,0,GEO,USA,USA,Unknown,Unknown,Unknown,1 09047U 76073A   22218.94941602  .00000074  00000+0  00000+0 0  9992,2 09047  10.8690 316.6331 0004762 147.1304 211.2864  0.99983988 33102
17239,COSMOS 1808,1986,104.95,-1.0,UNK,Inactive,0,LEO,Russia,Russia/USSR,Unknown,Unknown,Unknown,1 17239U 86100A   22219.31001382  .00000031  00000+0  16849-4 0  9996,2 17239  82.9362 132.5960 0032749 171.9669 305.7508 13.72048509784077
17241,COSMOS 1809,1986,104.03,-1.0,UNK,Inactive,0,LEO,Russia,Russia/USSR,Unknown,Unknown,Unknown,1 17241U 86101A   22219.38387156  .00000042  00000+0  24461-4 0  9994,2 17241  82.5328 323.3165 0016041 153.6062 269.5659 13.84206405799777
858,SYNCOM 3,1964,1436.29,-1.0,-,Inactive,0,GEO,USA,USA,Unknown,Unknown,Unknown,1 00858U 64047A   22219.49086632 -.00000041  00000+0  00000+0 0  9990,2 00858   3.5080  76.3071 0003680  70.4585 154.4572  1.00258549 39328
9057,NOAA 5,1976,116.34,-1.0,-,Inactive,0,LEO,USA,USA,Unknown,Unknown,Unknown,1 09057U 76077A   22219.57039734 -.00000017  00000+0  21259-3 0  9992,2 09057 102.1011 187.0207 0010362  45.6389  69.3195 12.37772460 80067
9061,COSMOS 846,1976,104.62,-1.0,UNK,Inactive,0,LEO,Russia,Russia/USSR,Unknown,Unknown,Unknown,1 09061U 76078A   22219.52723920  .00000044  00000+0  28724-4 0  9994,2 09061  82.9311  29.3304 0041842 157.2506 263.3465 13.76459738581295
870,EXPLORER 20,1964,103.51,-1.0,UNK,Inactive,0,LEO,USA,USA,Unknown,Unknown,Unknown,1 00870U 64051A   22219.53097043  .00000050  00000+0  32252-4 0  9990,2 00870  79.8993  12.1053 0097612  27.2766 333.3467 13.91234577937379
876,COSMOS 44,1964,98.37,-1.0,UNK,Inactive,0,LEO,Kazakhstan,Russia/USSR,Unknown,Unknown,Unknown,1 00876U 64053A   22219.29067609 -.00000025  00000+0  19104-4 0  9990,2 00876  65.0609 165.6694 0121064  96.1898 265.3011 14.63931132 82169
25460,ST-1,1998,1458.24,-1.0,-,Inactive,0,GEO,French Guiana,Singapore/Taiwan,Unknown,Unknown,Unknown,1 25460U 98049A   22219.30448406 -.00000191  00000+0  00000+0 0  9992,2 25460   8.1204  56.1196 0008699 338.0816  30.5077  0.98749469 31151
25467,IRIDIUM 82,1998,96.38,-1.0,-,Inactive,0,LEO,USA,USA,Unknown,Unknown,Unknown,1 25467U 98051A   22219.49342968  .00002419  00000+0  16684-3 0  9991,2 25467  86.3962 242.0652 0169880 164.8557 195.7852 14.94153791266532
897,OPS 5798 (TRANSIT 5B-4),1964,106.39,-1.0,UNK,Inactive,0,LEO,USA,USA,Unknown,Unknown,Unknown,1 00897U 64063B   22219.53083037  .00000058  00000+0  72703-4 0  9993,2 00897  90.1853  44.7765 0018216 320.1476  93.9953 13.53492312854543
25473,INTELSAT 7 (IS-7),1998,1466.2,-1.0,-,Inactive,0,GEO,French Guiana,USA,Unknown,Unknown,Unknown,1 25473U 98052A   22219.47573209 -.00000192  00000+0  00000+0 0  9999,2 25473   7.2194  63.9443 0007624  96.1517 105.9056  0.98212729 86788
899,EXPLORER 22,1964,104.18,-1.0,UNK,Inactive,0,LEO,USA,USA,Unknown,Unknown,Unknown,1 00899U 64064A   22219.48709353  .00000116  00000+0  96427-4 0  9990,2 00899  79.6883 228.6184 0119546 227.6252 131.4731 13.82257066910158
25476,ORBCOMM FM22,1998,100.45,-1.0,-,Inactive,0,LEO,Eastern Range Airspace,ORBCOMM,Unknown,Unknown,Unknown,1 25476U 98053B   22219.28313623  .00000264  00000+0  14499-3 0  9994,2 25476  45.0086 158.3611 0002923 358.1670   1.9166 14.33612949247121
25478,ORBCOMM FM24,1998,100.45,-1.0,-,Inactive,0,LEO,Eastern Range Airspace,ORBCOMM,Unknown,Unknown,Unknown,1 25478U 98053D   22219.26732053  .00000267  00000+0  14628-3 0  9993,2 25478  45.0089 161.7637 0001858 341.2587  18.8191 14.33489693247312
25479,ORBCOMM FM25,1998,100.45,-1.0,-,Inactive,0,LEO,Eastern Range Airspace,ORBCOMM,Unknown,Unknown,Unknown,1 25479U 98053E   22219.23117069  .00000267  00000+0  14635-3 0  9993,2 25479  45.0081 160.1988 0003227  37.1762 322.9307 14.33501162247601
25480,ORBCOMM FM26,1998,100.47,-1.0,-,Inactive,0,LEO,Eastern Range Airspace,ORBCOMM,Unknown,Unknown,Unknown,1 25480U 98053F   22219.27527610  .00000234  00000+0  13495-3 0  9993,2 25480  45.0077 152.2578 0004692  76.0284 284.1084 14.33237019247577
17290,METEOR 2-15,1987,103.97,-1.0,UNK,Inactive,0,LEO,Russia,Russia/USSR,Unknown,Unknown,Unknown,1 17290U 87001A   22219.35269832  .00000052  00000+0  32897-4 0  9998,2 17290  82.4692 149.5868 0013146 162.9192 197.2413 13.85078359798659
25482,ORBCOMM FM28,1998,100.41,-1.0,-,Inactive,0,LEO,Eastern Range Airspace,ORBCOMM,Unknown,Unknown,Unknown,1 25482U 98053H   22219.49723495  .00000272  00000+0  14648-3 0  9991,2 25482  45.0074 100.1893 0003334 100.9619 259.1603 14.34072355248211
25485,MOLNIYA 1-91,1998,609.02,-1.0,UNK,Inactive,0,MEO,Russia,Russia/USSR,Unknown,Unknown,Unknown,1 25485U 98054A   22218.74997903  .00000168  00000+0  22925-2 0  9999,2 25485  63.0290 142.3619 6774800 291.9005  18.8251  2.36445120179571
17295,COSMOS 1812,1987,94.86,-1.0,UNK,Inactive,0,LEO,Russia,Russia/USSR,Unknown,Unknown,Unknown,1 17295U 87003A   22219.38536775  .00002410  00000+0  11701-3 0  9991,2 17295  82.5124  95.1271 0004601  96.7247 263.4510 15.18011676943024
25489,STEX,1998,99.38,-1.0,-,Inactive,0,LEO,USA,USA,Unknown,Unknown,Unknown,1 25489U 98055A   22219.38888540  .00000238  00000+0  57095-4 0  9997,2 25489  84.9823  96.7040 0010347  27.0432 333.1307 14.49036565258988
25491,EUTELSAT W2,1998,1450.74,-1.0,-,Inactive,0,GEO,French Guiana,EUTELSAT,Unknown,Unknown,Unknown,1 25491U 98056A   22219.46692487 -.00000080  00000+0  00000+0 0  9998,2 25491   9.0478  48.3311 0004654  80.2321  89.7625  0.99258678 86865
25492,SIRIUS 3,1998,1454.06,-1.0,-,Inactive,0,GEO,French Guiana,SES,Unknown,Unknown,Unknown,1 25492U 98056B   22219.54081898  .00000055  00000+0  00000+0 0  9997,2 25492   9.3832  43.5990 0006714  48.1622 295.3418  0.99033111 87150
17303,COSMOS 1814,1987,100.34,-1.0,UNK,Inactive,0,LEO,Russia,Russia/USSR,Unknown,Unknown,Unknown,1 17303U 87006A   22219.44687612  .00000032  00000+0  20284-4 0  9993,2 17303  74.0582 320.6107 0024087  48.1767 312.1437 14.35115705859965
25495,EUTELSAT 4B,1998,1462.6,-1.0,-,Inactive,0,GEO,USA,EUTELSAT,Unknown,Unknown,Unknown,1 25495U 98057A   22219.23990840 -.00000052  00000+0  00000+0 0  9991,2 25495   7.3573  62.3245 0019987  25.9687 349.4334  0.98455363 86585
25501,UFO 9 (USA 140),1998,1466.73,-1.0,-,Inactive,0,GEO,USA,USA,Unknown,Unknown,Unknown,1 25501U 98058A   22219.39972420 -.00000127  00000+0  00000+0 0  9994,2 25501   9.7413  27.0823 0010366 354.1001 196.0395  0.98177056 85987
25503,MAQSAT 3 & ARIANE 5 R/B,1998,641.22,-1.0,UNK,Inactive,0,MEO,French Guiana,France,Unknown,Unknown,Unknown,1 25503U 98059A   22216.92641508 -.00000253  00000+0 -71944-2 0  9992,2 25503   7.6564  18.9421 7019651 280.9117  13.3463  2.24573224195227
932,EXPLORER 25 (INJUN 4),1964,113.9,-1.0,UNK,Inactive,0,LEO,USA,USA,Unknown,Unknown,Unknown,1 00932U 64076B   22219.48412436  .00000396  00000+0  14022-3 0  9994,2 00932  81.3421  20.8004 1130811 218.3507 133.1732 12.64311152640781
25509,SEDSAT 1 (SO-33),1998,100.65,-1.0,-,Inactive,0,LEO,USA,USA,Unknown,Unknown,Unknown,1 25509U 98061B   22219.35774644  .00000416  00000+0  67005-4 0  9993,2 25509  31.4322 214.5754 0345802 273.2286  82.8838 14.30672358243597
25515,AFRISTAR,1998,1454.45,-1.0,-,Inactive,0,GEO,French Guiana,USA,Unknown,Unknown,Unknown,1 25515U 98063A   22219.40396801 -.00000100  00000+0  00000+0 0  9991,2 25515   7.1256  60.7615 0007796  59.3563 265.3446  0.99006157 86591
25516,AMC-5 (GE-5),1998,1449.61,-1.0,-,Inactive,0,GEO,French Guiana,SES,Unknown,Unknown,Unknown,1 25516U 98063B   22219.35603181 -.00000143  00000+0  00000+0 0  9995,2 25516   8.7362  50.4390 0007048  47.7722 164.6495  0.99337002 86828
17328,MOLNIYA 3-31,1987,717.86,-1.0,UNK,Inactive,0,MEO,Russia,Russia/USSR,Unknown,Unknown,Unknown,1 17328U 87008A   22218.80357409  .00000427  00000+0  00000+0 0  9996,2 17328  63.6960 122.7822 7042403 253.8335  23.8551  2.00595827256876
25520,PAN SAT (PO-34),1998,94.01,-1.0,-,Inactive,0,LEO,USA,USA,Unknown,Unknown,Unknown,1 25520U 98064B   22219.16430084  .00002294  00000+0  65406-4 0  9994,2 25520  28.4397 138.5496 0004517 337.3649  22.6747 15.31704850321634
25522,INTELSAT 8 (IS-8),1998,1512.85,-1.0,-,Inactive,0,HEO,Kazakhstan,USA,Unknown,Unknown,Unknown,1 25522U 98065A   22219.17546747 -.00000082  00000+0  00000+0 0  9990,2 25522   5.4978  77.1537 0275541 266.8418 104.2669  0.95184610 31398
25527,IRIDIUM 2,1998,94.53,-1.0,-,Inactive,0,LEO,USA,USA,Unknown,Unknown,Unknown,1 25527U 98066A   22219.49771410  .00005169  00000+0  21559-3 0  9994,2 25527  85.5292   0.3631 0008315  26.0799 334.0862 15.23400489303274
